{"type": "FeatureCollection", "features": [ {"type": "Feature", "properties": {"norad_id": 40118, "name": "GAOFEN-2", "group": "resource", "lat": -67.77955034332855, "lon": -147.85078212587314, "alt_km": 640.1399635200132, "timestamp": "2025-12-19T04:59:47.957729+00:00", "meta": {"OBJECT_NAME": "GAOFEN-2", "OBJECT_ID": "2014-049A", "EPOCH": "2025-12-18T23:00:34.068096", "MEAN_MOTION": 14.8061996, "ECCENTRICITY": 0.00087313, "INCLINATION": 98.0384, "RA_OF_ASC_NODE": 52.1385, "ARG_OF_PERICENTER": 95.5938, "MEAN_ANOMALY": 264.627, "EPHEMERIS_TYPE": 0, "CLASSIFICATION_TYPE": "U", "NORAD_CAT_ID": 40118, "ELEMENT_SET_NO": 999, "REV_AT_EPOCH": 61256, "BSTAR": 8.2227478e-05, "MEAN_MOTION_DOT": 5.78e-06, "MEAN_MOTION_DDOT": 0}, "tle": {"line1": "1 40118U 14049A   25352.95872764  .00000578  00000+0  82227-4 0  9991", "line2": "2 40118  98.0384  52.1385 0008731  95.5938 264.6270 14.80619960612561"}}, "geometry": {"type": "Point", "coordinates": [-147.85078212587314, -67.77955034332855]}}, {"type": "Feature", "properties": {"norad_id": 40143, "name": "YAOGAN-21", "group": "resource", "lat": 45.12494858707539, "lon": -136.4905875161986, "alt_km": 493.2951585724986, "timestamp": "2025-12-19T04:59:47.957739+00:00", "meta": {"OBJECT_NAME": "YAOGAN-21", "OBJECT_ID": "2014-053A", "EPOCH": "2025-12-18T23:40:52.988160", "MEAN_MOTION": 15.23738235, "ECCENTRICITY": 0.00092046, "INCLINATION": 97.1755, "RA_OF_ASC_NODE": 36.0282, "ARG_OF_PERICENTER": 21.5139, "MEAN_ANOMALY": 338.6483, "EPHEMERIS_TYPE": 0, "CLASSIFICATION_TYPE": "U", "NORAD_CAT_ID": 40143, "ELEMENT_SET_NO": 999, "REV_AT_EPOCH": 62749, "BSTAR": 0.00015021646, "MEAN_MOTION_DOT": 3.546e-05, "MEAN_MOTION_DDOT": 0}, "tle": {"line1": "1 40143U 14053A   25352.98672440  .00003546  00000+0  15022-3 0  9992", "line2": "2 40143  97.1755  36.0282 0009204  21.5139 338.6483 15.23738235627497"}}, "geometry": {"type": "Point", "coordinates": [-136.4905875161986, 45.12494858707539]}}, {"type": "Feature", "properties": {"norad_id": 40275, "name": "YAOGAN-22", "group": "resource", "lat": 10.239197164496694, "lon": -41.31597761157261, "alt_km": 1201.081185360842, "timestamp": "2025-12-19T04:59:47.957750+00:00", "meta": {"OBJECT_NAME": "YAOGAN-22", "OBJECT_ID": "2014-063A", "EPOCH": "2025-12-18T22:39:42.108768", "MEAN_MOTION": 13.15522946, "ECCENTRICITY": 0.00060013, "INCLINATION": 100.7426, "RA_OF_ASC_NODE": 136.4514, "ARG_OF_PERICENTER": 233.0652, "MEAN_ANOMALY": 126.991, "EPHEMERIS_TYPE": 0, "CLASSIFICATION_TYPE": "U", "NORAD_CAT_ID": 40275, "ELEMENT_SET_NO": 999, "REV_AT_EPOCH": 53611, "BSTAR": -6.887397e-06, "MEAN_MOTION_DOT": -4.9e-07, "MEAN_MOTION_DDOT": 0}, "tle": {"line1": "1 40275U 14063A   25352.94423737 -.00000049  00000+0 -68874-5 0  9990", "line2": "2 40275 100.7426 136.4514 0006001 233.0652 126.9910 13.15522946536114"}}, "geometry": {"type": "Point", "coordinates": [-41.31597761157261, 10.239197164496694]}}, {"type": "Feature", "properties": {"norad_id": 40298, "name": "ASNARO", "group": "resource", "lat": 81.49623397746068, "lon": 9.095866039564388, "alt_km": 495.7670651141325, "timestamp": "2025-12-19T04:59:47.957760+00:00", "meta": {"OBJECT_NAME": "ASNARO", "OBJECT_ID": "2014-070A", "EPOCH": "2025-12-18T23:52:47.547264", "MEAN_MOTION": 15.19618335, "ECCENTRICITY": 0.00057917, "INCLINATION": 97.3656, "RA_OF_ASC_NODE": 68.7887, "ARG_OF_PERICENTER": 104.8404, "MEAN_ANOMALY": 255.3473, "EPHEMERIS_TYPE": 0, "CLASSIFICATION_TYPE": "U", "NORAD_CAT_ID": 40298, "ELEMENT_SET_NO": 999, "REV_AT_EPOCH": 61664, "BSTAR": 0.00030794168, "MEAN_MOTION_DOT": 6.496e-05, "MEAN_MOTION_DDOT": 0}, "tle": {"line1": "1 40298U 14070A   25352.99499476  .00006496  00000+0  30794-3 0  9999", "line2": "2 40298  97.3656  68.7887 0005791 104.8404 255.3473 15.19618335616642"}}, "geometry": {"type": "Point", "coordinates": [9.095866039564388, 81.49623397746068]}}, {"type": "Feature", "properties": {"norad_id": 40310, "name": "YAOGAN-24", "group": "resource", "lat": 49.3656773499974, "lon": -46.08529247374028, "alt_km": 626.5893699187136, "timestamp": "2025-12-19T04:59:47.957770+00:00", "meta": {"OBJECT_NAME": "YAOGAN-24", "OBJECT_ID": "2014-072A", "EPOCH": "2025-12-18T23:31:50.704608", "MEAN_MOTION": 14.76188678, "ECCENTRICITY": 0.00149935, "INCLINATION": 98.1217, "RA_OF_ASC_NODE": 124.1067, "ARG_OF_PERICENTER": 119.1945, "MEAN_ANOMALY": 241.0766, "EPHEMERIS_TYPE": 0, "CLASSIFICATION_TYPE": "U", "NORAD_CAT_ID": 40310, "ELEMENT_SET_NO": 999, "REV_AT_EPOCH": 59713, "BSTAR": 7.7425118e-05, "MEAN_MOTION_DOT": 4.83e-06, "MEAN_MOTION_DDOT": 0}, "tle": {"line1": "1 40310U 14072A   25352.98044797  .00000483  00000+0  77425-4 0  9990", "line2": "2 40310  98.1217 124.1067 0014993 119.1945 241.0766 14.76188678597132"}}, "geometry": {"type": "Point", "coordinates": [-46.08529247374028, 49.3656773499974]}}, {"type": "Feature", "properties": {"norad_id": 40336, "name": "CBERS 4", "group": "resource", "lat": 4.6340661934532035, "lon": 50.323499812326624, "alt_km": 775.8830420429304, "timestamp": "2025-12-19T04:59:47.957780+00:00", "meta": {"OBJECT_NAME": "CBERS 4", "OBJECT_ID": "2014-079A", "EPOCH": "2025-12-18T22:17:00.792096", "MEAN_MOTION": 14.35519369, "ECCENTRICITY": 0.00017741, "INCLINATION": 98.3307, "RA_OF_ASC_NODE": 50.7339, "ARG_OF_PERICENTER": 105.5878, "MEAN_ANOMALY": 254.5504, "EPHEMERIS_TYPE": 0, "CLASSIFICATION_TYPE": "U", "NORAD_CAT_ID": 40336, "ELEMENT_SET_NO": 999, "REV_AT_EPOCH": 57809, "BSTAR": 2.0127986e-05, "MEAN_MOTION_DOT": 1.6e-07, "MEAN_MOTION_DDOT": 0}, "tle": {"line1": "1 40336U 14079A   25352.92848139  .00000016  00000+0  20128-4 0  9991", "line2": "2 40336  98.3307  50.7339 0001774 105.5878 254.5504 14.35519369578098"}}, "geometry": {"type": "Point", "coordinates": [50.323499812326624, 4.6340661934532035]}}, {"type": "Feature", "properties": {"norad_id": 40362, "name": "YAOGAN-26", "group": "resource", "lat": -33.908110044108454, "lon": 168.87109431260785, "alt_km": 457.1467710867946, "timestamp": "2025-12-19T04:59:47.957791+00:00", "meta": {"OBJECT_NAME": "YAOGAN-26", "OBJECT_ID": "2014-088A", "EPOCH": "2025-12-18T23:23:22.471296", "MEAN_MOTION": 15.39513504, "ECCENTRICITY": 0.00052888, "INCLINATION": 97.0637, "RA_OF_ASC_NODE": 353.4269, "ARG_OF_PERICENTER": 11.9076, "MEAN_ANOMALY": 348.2295, "EPHEMERIS_TYPE": 0, "CLASSIFICATION_TYPE": "U", "NORAD_CAT_ID": 40362, "ELEMENT_SET_NO": 999, "REV_AT_EPOCH": 60990, "BSTAR": 0.00038905548, "MEAN_MOTION_DOT": 0.00015216, "MEAN_MOTION_DDOT": 0}, "tle": {"line1": "1 40362U 14088A   25352.97456564  .00015216  00000+0  38906-3 0  9992", "line2": "2 40362  97.0637 353.4269 0005288  11.9076 348.2295 15.39513504609901"}}, "geometry": {"type": "Point", "coordinates": [168.87109431260785, -33.908110044108454]}}, {"type": "Feature", "properties": {"norad_id": 40376, "name": "SMAP", "group": "resource", "lat": 44.62506520782666, "lon": -174.05146732403855, "alt_km": 677.9579443253724, "timestamp": "2025-12-19T04:59:47.957801+00:00", "meta": {"OBJECT_NAME": "SMAP", "OBJECT_ID": "2015-003A", "EPOCH": "2025-12-18T21:49:08.430240", "MEAN_MOTION": 14.63352619, "ECCENTRICITY": 0.00012163, "INCLINATION": 98.1288, "RA_OF_ASC_NODE": 357.544, "ARG_OF_PERICENTER": 90.9833, "MEAN_ANOMALY": 269.1508, "EPHEMERIS_TYPE": 0, "CLASSIFICATION_TYPE": "U", "NORAD_CAT_ID": 40376, "ELEMENT_SET_NO": 999, "REV_AT_EPOCH": 58125, "BSTAR": 9.1423225e-05, "MEAN_MOTION_DOT": 4.25e-06, "MEAN_MOTION_DDOT": 0}, "tle": {"line1": "1 40376U 15003A   25352.90912535  .00000425  00000+0  91423-4 0  9993", "line2": "2 40376  98.1288 357.5440 0001216  90.9833 269.1508 14.63352619581250"}}, "geometry": {"type": "Point", "coordinates": [-174.05146732403855, 44.62506520782666]}}, {"type": "Feature", "properties": {"norad_id": 40536, "name": "KOMPSAT-3A", "group": "resource", "lat": -79.67645867073324, "lon": 100.12057035468192, "alt_km": 444.3475926638039, "timestamp": "2025-12-19T04:59:47.957812+00:00", "meta": {"OBJECT_NAME": "KOMPSAT-3A", "OBJECT_ID": "2015-014A", "EPOCH": "2025-12-18T23:11:43.288800", "MEAN_MOTION": 15.44166294, "ECCENTRICITY": 0.00053466, "INCLINATION": 97.6788, "RA_OF_ASC_NODE": 327.6575, "ARG_OF_PERICENTER": 112.9139, "MEAN_ANOMALY": 247.2674, "EPHEMERIS_TYPE": 0, "CLASSIFICATION_TYPE": "U", "NORAD_CAT_ID": 40536, "ELEMENT_SET_NO": 999, "REV_AT_EPOCH": 59391, "BSTAR": 0.00033891319, "MEAN_MOTION_DOT": 0.00015458, "MEAN_MOTION_DDOT": 0}, "tle": {"line1": "1 40536U 15014A   25352.96647325  .00015458  00000+0  33891-3 0  9997", "line2": "2 40536  97.6788 327.6575 0005346 112.9139 247.2674 15.44166294593915"}}, "geometry": {"type": "Point", "coordinates": [100.12057035468192, -79.67645867073324]}}, {"type": "Feature", "properties": {"norad_id": 40697, "name": "SENTINEL-2A", "group": "resource", "lat": -33.02776418030829, "lon": 71.27834500357494, "alt_km": 795.5115345921413, "timestamp": "2025-12-19T04:59:47.957822+00:00", "meta": {"OBJECT_NAME": "SENTINEL-2A", "OBJECT_ID": "2015-028A", "EPOCH": "2025-12-18T22:26:21.625728", "MEAN_MOTION": 14.30807413, "ECCENTRICITY": 0.00010469, "INCLINATION": 98.5745, "RA_OF_ASC_NODE": 65.38, "ARG_OF_PERICENTER": 87.697, "MEAN_ANOMALY": 272.4333, "EPHEMERIS_TYPE": 0, "CLASSIFICATION_TYPE": "U", "NORAD_CAT_ID": 40697, "ELEMENT_SET_NO": 999, "REV_AT_EPOCH": 54795, "BSTAR": 7.2115381e-05, "MEAN_MOTION_DOT": 1.45e-06, "MEAN_MOTION_DDOT": 0}, "tle": {"line1": "1 40697U 15028A   25352.93497252  .00000145  00000+0  72115-4 0  9999", "line2": "2 40697  98.5745  65.3800 0001046  87.6970 272.4333 14.30807413547951"}}, "geometry": {"type": "Point", "coordinates": [71.27834500357494, -33.02776418030829]}}]}